{
  "type": "FeatureCollection",
  "features": [
    {
      "type": "Feature",
      "properties": {
        "norad_id": 34314,
        "name": "COSMOS 2251 DEB",
        "group": "cosmos-2251-debris",
        "lat": 30.07625171321882,
        "lon": 133.8492466447453,
        "alt_km": 815.194376404238,
        "timestamp": "2025-12-04T07:39:36.525845+00:00",
        "meta_object_name": "COSMOS 2251 DEB",
        "meta_object_id": "1993-036NL",
        "meta_epoch": "2025-12-03T17:40:37.507008",
        "meta_mean_motion": 14.17386358,
        "meta_eccentricity": 0.01025499,
        "meta_inclination": 74.0053,
        "meta_ra_of_asc_node": 324.4502,
        "meta_arg_of_pericenter": 72.4305,
        "meta_mean_anomaly": 343.1696,
        "meta_ephemeris_type": 0,
        "meta_classification_type": "U",
        "meta_norad_cat_id": 34314,
        "meta_element_set_no": 999,
        "meta_rev_at_epoch": 86530,
        "meta_bstar": 0.00087115563,
        "meta_mean_motion_dot": 1.833e-05,
        "meta_mean_motion_ddot": 0,
        "tle_line1": "1 34314U 93036NL  25337.73654522  .00001833  00000+0  87116-3 0  9990",
        "tle_line2": "2 34314  74.0053 324.4502 0102549  72.4305 343.1696 14.17386358865308"
      },
      "geometry": {
        "type": "Point",
        "coordinates": [
          133.8492466447453,
          30.07625171321882
        ]
      }
    },
    {
      "type": "Feature",
      "properties": {
        "norad_id": 34316,
        "name": "COSMOS 2251 DEB",
        "group": "cosmos-2251-debris",
        "lat": -65.331276095348,
        "lon": -147.77822599922285,
        "alt_km": 605.7662857318619,
        "timestamp": "2025-12-04T07:39:36.525854+00:00",
        "meta_object_name": "COSMOS 2251 DEB",
        "meta_object_id": "1993-036NN",
        "meta_epoch": "2025-12-02T11:04:14.633472",
        "meta_mean_motion": 14.91333968,
        "meta_eccentricity": 0.00078318,
        "meta_inclination": 74.0655,
        "meta_ra_of_asc_node": 357.4723,
        "meta_arg_of_pericenter": 87.8218,
        "meta_mean_anomaly": 272.3861,
        "meta_ephemeris_type": 0,
        "meta_classification_type": "U",
        "meta_norad_cat_id": 34316,
        "meta_element_set_no": 999,
        "meta_rev_at_epoch": 89056,
        "meta_bstar": 0.0018346533,
        "meta_mean_motion_dot": 0.00018316,
        "meta_mean_motion_ddot": 0,
        "tle_line1": "1 34316U 93036NN  25336.46128048  .00018316  00000+0  18347-2 0  9993",
        "tle_line2": "2 34316  74.0655 357.4723 0007831  87.8218 272.3861 14.91333968890564"
      },
      "geometry": {
        "type": "Point",
        "coordinates": [
          -147.77822599922285,
          -65.331276095348
        ]
      }
    },
    {
      "type": "Feature",
      "properties": {
        "norad_id": 34317,
        "name": "COSMOS 2251 DEB",
        "group": "cosmos-2251-debris",
        "lat": -45.40782668037021,
        "lon": -113.37398502843897,
        "alt_km": 1270.1463922596522,
        "timestamp": "2025-12-04T07:39:36.525864+00:00",
        "meta_object_name": "COSMOS 2251 DEB",
        "meta_object_id": "1993-036NP",
        "meta_epoch": "2025-12-03T11:17:00.960864",
        "meta_mean_motion": 13.6510987,
        "meta_eccentricity": 0.03362846,
        "meta_inclination": 73.925,
        "meta_ra_of_asc_node": 51.0171,
        "meta_arg_of_pericenter": 42.0922,
        "meta_mean_anomaly": 335.2767,
        "meta_ephemeris_type": 0,
        "meta_classification_type": "U",
        "meta_norad_cat_id": 34317,
        "meta_element_set_no": 999,
        "meta_rev_at_epoch": 83493,
        "meta_bstar": 0.00051395611,
        "meta_mean_motion_dot": 5.92e-06,
        "meta_mean_motion_ddot": 0,
        "tle_line1": "1 34317U 93036NP  25337.47015001  .00000592  00000+0  51396-3 0  9999",
        "tle_line2": "2 34317  73.9250  51.0171 0336284  42.0922 335.2767 13.65109870834936"
      },
      "geometry": {
        "type": "Point",
        "coordinates": [
          -113.37398502843897,
          -45.40782668037021
        ]
      }
    },
    {
      "type": "Feature",
      "properties": {
        "norad_id": 34321,
        "name": "COSMOS 2251 DEB",
        "group": "cosmos-2251-debris",
        "lat": -38.17238586801981,
        "lon": 5.193703602788103,
        "alt_km": 730.2058532948022,
        "timestamp": "2025-12-04T07:39:36.525873+00:00",
        "meta_object_name": "COSMOS 2251 DEB",
        "meta_object_id": "1993-036NT",
        "meta_epoch": "2025-12-03T22:55:21.872064",
        "meta_mean_motion": 14.49996769,
        "meta_eccentricity": 0.0015638,
        "meta_inclination": 74.0276,
        "meta_ra_of_asc_node": 172.8651,
        "meta_arg_of_pericenter": 302.9406,
        "meta_mean_anomaly": 177.5399,
        "meta_ephemeris_type": 0,
        "meta_classification_type": "U",
        "meta_norad_cat_id": 34321,
        "meta_element_set_no": 999,
        "meta_rev_at_epoch": 88359,
        "meta_bstar": 0.0010085552,
        "meta_mean_motion_dot": 3.886e-05,
        "meta_mean_motion_ddot": 0,
        "tle_line1": "1 34321U 93036NT  25337.95511426  .00003886  00000+0  10086-2 0  9998",
        "tle_line2": "2 34321  74.0276 172.8651 0015638 302.9406 177.5399 14.49996769883596"
      },
      "geometry": {
        "type": "Point",
        "coordinates": [
          5.193703602788103,
          -38.17238586801981
        ]
      }
    },
    {
      "type": "Feature",
      "properties": {
        "norad_id": 34323,
        "name": "COSMOS 2251 DEB",
        "group": "cosmos-2251-debris",
        "lat": -41.669647839177976,
        "lon": -25.522983605228116,
        "alt_km": 620.935937132811,
        "timestamp": "2025-12-04T07:39:36.525882+00:00",
        "meta_object_name": "COSMOS 2251 DEB",
        "meta_object_id": "1993-036NV",
        "meta_epoch": "2025-12-03T13:00:45.615168",
        "meta_mean_motion": 14.73904836,
        "meta_eccentricity": 0.00610358,
        "meta_inclination": 73.952,
        "meta_ra_of_asc_node": 141.1561,
        "meta_arg_of_pericenter": 187.2235,
        "meta_mean_anomaly": 234.9904,
        "meta_ephemeris_type": 0,
        "meta_classification_type": "U",
        "meta_norad_cat_id": 34323,
        "meta_element_set_no": 999,
        "meta_rev_at_epoch": 88304,
        "meta_bstar": 0.003774642,
        "meta_mean_motion_dot": 0.00025569,
        "meta_mean_motion_ddot": 0,
        "tle_line1": "1 34323U 93036NV  25337.54219462  .00025569  00000+0  37746-2 0  9994",
        "tle_line2": "2 34323  73.9520 141.1561 0061035 187.2235 234.9904 14.73904836883044"
      },
      "geometry": {
        "type": "Point",
        "coordinates": [
          -25.522983605228116,
          -41.669647839177976
        ]
      }
    },
    {
      "type": "Feature",
      "properties": {
        "norad_id": 34325,
        "name": "COSMOS 2251 DEB",
        "group": "cosmos-2251-debris",
        "lat": 30.12505499613448,
        "lon": -142.69093101329966,
        "alt_km": 1011.932405199771,
        "timestamp": "2025-12-04T07:39:36.525891+00:00",
        "meta_object_name": "COSMOS 2251 DEB",
        "meta_object_id": "1993-036NX",
        "meta_epoch": "2025-12-03T10:07:48.150048",
        "meta_mean_motion": 14.04379455,
        "meta_eccentricity": 0.01932449,
        "meta_inclination": 73.8714,
        "meta_ra_of_asc_node": 209.2229,
        "meta_arg_of_pericenter": 228.3971,
        "meta_mean_anomaly": 308.8817,
        "meta_ephemeris_type": 0,
        "meta_classification_type": "U",
        "meta_norad_cat_id": 34325,
        "meta_element_set_no": 999,
        "meta_rev_at_epoch": 85384,
        "meta_bstar": 0.0022459922,
        "meta_mean_motion_dot": 4.199e-05,
        "meta_mean_motion_ddot": 0,
        "tle_line1": "1 34325U 93036NX  25337.42208507  .00004199  00000+0  22460-2 0  9994",
        "tle_line2": "2 34325  73.8714 209.2229 0193244 228.3971 308.8817 14.04379455853845"
      },
      "geometry": {
        "type": "Point",
        "coordinates": [
          -142.69093101329966,
          30.12505499613448
        ]
      }
    },
    {
      "type": "Feature",
      "properties": {
        "norad_id": 34327,
        "name": "COSMOS 2251 DEB",
        "group": "cosmos-2251-debris",
        "lat": 14.95523007090829,
        "lon": 4.352487188089477,
        "alt_km": 622.7566656356275,
        "timestamp": "2025-12-04T07:39:36.525900+00:00",
        "meta_object_name": "COSMOS 2251 DEB",
        "meta_object_id": "1993-036NZ",
        "meta_epoch": "2025-12-03T15:04:27.433920",
        "meta_mean_motion": 14.88851665,
        "meta_eccentricity": 0.00322229,
        "meta_inclination": 73.9938,
        "meta_ra_of_asc_node": 190.1333,
        "meta_arg_of_pericenter": 8.3539,
        "meta_mean_anomaly": 53.2683,
        "meta_ephemeris_type": 0,
        "meta_classification_type": "U",
        "meta_norad_cat_id": 34327,
        "meta_element_set_no": 999,
        "meta_rev_at_epoch": 89372,
        "meta_bstar": 0.0016884277,
        "meta_mean_motion_dot": 0.00015981,
        "meta_mean_motion_ddot": 0,
        "tle_line1": "1 34327U 93036NZ  25337.62809530  .00015981  00000+0  16884-2 0  9995",
        "tle_line2": "2 34327  73.9938 190.1333 0032222   8.3539  53.2683 14.88851665893727"
      },
      "geometry": {
        "type": "Point",
        "coordinates": [
          4.352487188089477,
          14.95523007090829
        ]
      }
    }
  ]
}